{
    "links": {
        "self": "http://www.neowsapp.com/rest/v1/neo/3635071?api_key=iIulBulltgU6a56xZRHN4H3l9WmuAYTsLGpBGhQ2"
    },
    "id": "3635071",
    "neo_reference_id": "3635071",
    "name": "(2013 HK11)",
    "designation": "2013 HK11",
    "nasa_jpl_url": "http://ssd.jpl.nasa.gov/sbdb.cgi?sstr=3635071",
    "absolute_magnitude_h": 20.7,
    "estimated_diameter": {
        "kilometers": {
            "estimated_diameter_min": 0.1925550782,
            "estimated_diameter_max": 0.4305662442
        },
        "meters": {
            "estimated_diameter_min": 192.5550781879,
            "estimated_diameter_max": 430.566244241
        },
        "miles": {
            "estimated_diameter_min": 0.1196481415,
            "estimated_diameter_max": 0.2675413778
        },
        "feet": {
            "estimated_diameter_min": 631.7424027221,
            "estimated_diameter_max": 1412.6189567557
        }
    },
    "is_potentially_hazardous_asteroid": false,
    "close_approach_data": [
        {
            "close_approach_date": "2013-04-24",
            "close_approach_date_full": "2013-Apr-24 22:27",
            "epoch_date_close_approach": 1366842420000,
            "relative_velocity": {
                "kilometers_per_second": "38.668886304",
                "kilometers_per_hour": "139207.9906943687",
                "miles_per_hour": "86498.4317733981"
            },
            "miss_distance": {
                "astronomical": "0.1950426976",
                "lunar": "75.8716093664",
                "kilometers": "29177972.120014112",
                "miles": "18130351.1598222656"
            },
            "orbiting_body": "Earth"
        }
    ],
    "orbital_data": {
        "orbit_id": "5",
        "orbit_determination_date": "2017-04-06 08:46:04",
        "first_observation_date": "2013-04-16",
        "last_observation_date": "2013-04-22",
        "data_arc_in_days": 6,
        "observations_used": 22,
        "orbit_uncertainty": "9",
        "minimum_orbit_intersection": ".19215",
        "jupiter_tisserand_invariant": "2.811",
        "epoch_osculation": "2456403.5",
        "eccentricity": ".9363966904206962",
        "semi_major_axis": "2.189228920834448",
        "inclination": "17.7042863409063",
        "ascending_node_longitude": "73.55846989585496",
        "orbital_period": "1183.137424542439",
        "perihelion_distance": ".1392422047917986",
        "perihelion_argument": "281.7465343619895",
        "aphelion_distance": "4.239215636877097",
        "perihelion_time": "2456440.780766787085",
        "mean_anomaly": "348.6563675825393",
        "mean_motion": ".3042757270054446",
        "equinox": "J2000",
        "orbit_class": {
            "orbit_class_type": "APO",
            "orbit_class_description": "Near-Earth asteroid orbits which cross the Earth’s orbit similar to that of 1862 Apollo",
            "orbit_class_range": "a (semi-major axis) > 1.0 AU; q (perihelion) < 1.017 AU"
        }
    },
    "is_sentry_object": false
}